[{"OBJECT_NAME":"STARLINK-33662","OBJECT_ID":"2025-053W","EPOCH":"2026-03-09T11:39:41.068800","MEAN_MOTION":15.27593272,"ECCENTRICITY":0.00028474,"INCLINATION":43.0008,"RA_OF_ASC_NODE":242.8071,"ARG_OF_PERICENTER":285.1887,"MEAN_ANOMALY":74.865,"EPHEMERIS_TYPE":0,"CLASSIFICATION_TYPE":"U","NORAD_CAT_ID":63285,"ELEMENT_SET_NO":999,"REV_AT_EPOCH":5616,"BSTAR":0.0012706608,"MEAN_MOTION_DOT":0.00034886,"MEAN_MOTION_DDOT":0},{"OBJECT_NAME":"OBJECT F","OBJECT_ID":"2026-023F","EPOCH":"2026-03-09T17:11:01.401216","MEAN_MOTION":15.23264948,"ECCENTRICITY":0.00223432,"INCLINATION":96.6318,"RA_OF_ASC_NODE":144.1544,"ARG_OF_PERICENTER":121.6413,"MEAN_ANOMALY":238.701,"EPHEMERIS_TYPE":0,"CLASSIFICATION_TYPE":"U","NORAD_CAT_ID":67679,"ELEMENT_SET_NO":999,"REV_AT_EPOCH":484,"BSTAR":0.00053756888,"MEAN_MOTION_DOT":0.00012778,"MEAN_MOTION_DDOT":0}]
